[{"OBJECT_NAME":"IRIDIUM 173","OBJECT_ID":"2019-002D","EPOCH":"2026-03-03T10:01:22.627200","MEAN_MOTION":14.34214624,"ECCENTRICITY":0.0002059,"INCLINATION":86.3957,"RA_OF_ASC_NODE":37.7545,"ARG_OF_PERICENTER":81.1476,"MEAN_ANOMALY":278.9953,"EPHEMERIS_TYPE":0,"CLASSIFICATION_TYPE":"U","NORAD_CAT_ID":43925,"ELEMENT_SET_NO":999,"REV_AT_EPOCH":37379,"BSTAR":-0.00021012,"MEAN_MOTION_DOT":-5.69e-6,"MEAN_MOTION_DDOT":0},{"OBJECT_NAME":"IRIDIUM 169","OBJECT_ID":"2019-002E","EPOCH":"2026-03-03T10:59:24.315648","MEAN_MOTION":14.38610701,"ECCENTRICITY":0.0001585,"INCLINATION":86.4164,"RA_OF_ASC_NODE":69.3955,"ARG_OF_PERICENTER":74.6663,"MEAN_ANOMALY":285.471,"EPHEMERIS_TYPE":0,"CLASSIFICATION_TYPE":"U","NORAD_CAT_ID":43926,"ELEMENT_SET_NO":999,"REV_AT_EPOCH":37502,"BSTAR":0.00010135,"MEAN_MOTION_DOT":3.3e-6,"MEAN_MOTION_DDOT":0},{"OBJECT_NAME":"IRIDIUM 172","OBJECT_ID":"2019-002F","EPOCH":"2026-03-03T11:32:42.911808","MEAN_MOTION":14.34217972,"ECCENTRICITY":0.0002355,"INCLINATION":86.3963,"RA_OF_ASC_NODE":37.7357,"ARG_OF_PERICENTER":86.7862,"MEAN_ANOMALY":273.3603,"EPHEMERIS_TYPE":0,"CLASSIFICATION_TYPE":"U","NORAD_CAT_ID":43927,"ELEMENT_SET_NO":999,"REV_AT_EPOCH":37381,"BSTAR":2.328e-5,"MEAN_MOTION_DOT":8.5e-7,"MEAN_MOTION_DDOT":0},{"OBJECT_NAME":"IRIDIUM 175","OBJECT_ID":"2019-002G","EPOCH":"2026-03-03T06:15:24.815232","MEAN_MOTION":14.72256199,"ECCENTRICITY":0.0002214,"INCLINATION":86.1547,"RA_OF_ASC_NODE":335.7089,"ARG_OF_PERICENTER":112.6242,"MEAN_ANOMALY":247.5209,"EPHEMERIS_TYPE":0,"CLASSIFICATION_TYPE":"U","NORAD_CAT_ID":43928,"ELEMENT_SET_NO":999,"REV_AT_EPOCH":38365,"BSTAR":0.00020584,"MEAN_MOTION_DOT":1.323e-5,"MEAN_MOTION_DDOT":0},{"OBJECT_NAME":"IRIDIUM 171","OBJECT_ID":"2019-002H","EPOCH":"2026-03-03T11:05:18.864960","MEAN_MOTION":14.34218019,"ECCENTRICITY":0.000202,"INCLINATION":86.3972,"RA_OF_ASC_NODE":38.0385,"ARG_OF_PERICENTER":91.7762,"MEAN_ANOMALY":268.3666,"EPHEMERIS_TYPE":0,"CLASSIFICATION_TYPE":"U","NORAD_CAT_ID":43929,"ELEMENT_SET_NO":999,"REV_AT_EPOCH":37380,"BSTAR":1.9696e-5,"MEAN_MOTION_DOT":7.5e-7,"MEAN_MOTION_DDOT":0},{"OBJECT_NAME":"IRIDIUM 170","OBJECT_ID":"2019-002J","EPOCH":"2026-03-03T11:24:33.092064","MEAN_MOTION":14.72256676,"ECCENTRICITY":0.0002613,"INCLINATION":86.6083,"RA_OF_ASC_NODE":37.7241,"ARG_OF_PERICENTER":91.363,"MEAN_ANOMALY":268.7886,"EPHEMERIS_TYPE":0,"CLASSIFICATION_TYPE":"U","NORAD_CAT_ID":43930,"ELEMENT_SET_NO":999,"REV_AT_EPOCH":38370,"BSTAR":0.0002113,"MEAN_MOTION_DOT":1.357e-5,"MEAN_MOTION_DDOT":0},{"OBJECT_NAME":"IRIDIUM 167","OBJECT_ID":"2019-002K","EPOCH":"2026-03-03T10:56:10.838400","MEAN_MOTION":14.34217917,"ECCENTRICITY":0.0001845,"INCLINATION":86.396,"RA_OF_ASC_NODE":37.7677,"ARG_OF_PERICENTER":90.0945,"MEAN_ANOMALY":270.0462,"EPHEMERIS_TYPE":0,"CLASSIFICATION_TYPE":"U","NORAD_CAT_ID":43931,"ELEMENT_SET_NO":999,"REV_AT_EPOCH":37380,"BSTAR":4.6775e-7,"MEAN_MOTION_DOT":2.1e-7,"MEAN_MOTION_DDOT":0},{"OBJECT_NAME":"IRIDIUM 181","OBJECT_ID":"2023-068S","EPOCH":"2026-03-03T04:06:27.055872","MEAN_MOTION":14.43313719,"ECCENTRICITY":0.00026,"INCLINATION":86.4461,"RA_OF_ASC_NODE":101.1269,"ARG_OF_PERICENTER":98.6243,"MEAN_ANOMALY":261.5252,"EPHEMERIS_TYPE":0,"CLASSIFICATION_TYPE":"U","NORAD_CAT_ID":56726,"ELEMENT_SET_NO":999,"REV_AT_EPOCH":14714,"BSTAR":0.00010695,"MEAN_MOTION_DOT":3.8e-6,"MEAN_MOTION_DDOT":0},{"OBJECT_NAME":"IRIDIUM 177","OBJECT_ID":"2023-068T","EPOCH":"2026-03-03T09:22:50.220192","MEAN_MOTION":14.80238527,"ECCENTRICITY":0.0002381,"INCLINATION":86.1994,"RA_OF_ASC_NODE":19.0115,"ARG_OF_PERICENTER":80.5206,"MEAN_ANOMALY":279.6284,"EPHEMERIS_TYPE":0,"CLASSIFICATION_TYPE":"U","NORAD_CAT_ID":56727,"ELEMENT_SET_NO":999,"REV_AT_EPOCH":15071,"BSTAR":0.00025585,"MEAN_MOTION_DOT":1.971e-5,"MEAN_MOTION_DDOT":0},{"OBJECT_NAME":"IRIDIUM 174","OBJECT_ID":"2023-068U","EPOCH":"2026-03-03T11:06:45.658944","MEAN_MOTION":14.72259319,"ECCENTRICITY":0.0002603,"INCLINATION":86.609,"RA_OF_ASC_NODE":37.8661,"ARG_OF_PERICENTER":83.4423,"MEAN_ANOMALY":276.709,"EPHEMERIS_TYPE":0,"CLASSIFICATION_TYPE":"U","NORAD_CAT_ID":56728,"ELEMENT_SET_NO":999,"REV_AT_EPOCH":15046,"BSTAR":0.00022286,"MEAN_MOTION_DOT":1.43e-5,"MEAN_MOTION_DDOT":0},{"OBJECT_NAME":"IRIDIUM 178","OBJECT_ID":"2023-068V","EPOCH":"2026-03-03T10:44:28.745088","MEAN_MOTION":14.80242655,"ECCENTRICITY":0.0002313,"INCLINATION":86.6481,"RA_OF_ASC_NODE":69.5503,"ARG_OF_PERICENTER":102.5983,"MEAN_ANOMALY":257.5497,"EPHEMERIS_TYPE":0,"CLASSIFICATION_TYPE":"U","NORAD_CAT_ID":56729,"ELEMENT_SET_NO":999,"REV_AT_EPOCH":15072,"BSTAR":8.9376e-5,"MEAN_MOTION_DOT":7.05e-6,"MEAN_MOTION_DDOT":0},{"OBJECT_NAME":"IRIDIUM 179","OBJECT_ID":"2023-068W","EPOCH":"2026-03-03T12:14:06.307872","MEAN_MOTION":14.80239105,"ECCENTRICITY":0.0002255,"INCLINATION":86.6717,"RA_OF_ASC_NODE":78.1977,"ARG_OF_PERICENTER":93.4664,"MEAN_ANOMALY":266.6816,"EPHEMERIS_TYPE":0,"CLASSIFICATION_TYPE":"U","NORAD_CAT_ID":56730,"ELEMENT_SET_NO":999,"REV_AT_EPOCH":15073,"BSTAR":8.4515e-5,"MEAN_MOTION_DOT":6.68e-6,"MEAN_MOTION_DDOT":0}]
